CSS (TIANHE)            
1 48274U 21035A   24219.16132228  .00038466  00000+0  47087-3 0  9994
2 48274  41.4686 138.4007 0000720 271.7650  88.3106 15.59630552186918
